SOYUZ-MS 28             
1 66664U 25275A   26199.86307312  .00004095  00000+0  82321-4 0  9993
2 66664  51.6317 143.3357 0006801 311.9505  48.0904 15.49045080576018
CREW DRAGON 12          
1 67796U 26031A   26199.86307312  .00004095  00000+0  82321-4 0  9991
2 67796  51.6317 143.3357 0006801 311.9505  48.0904 15.49045080575979
SHENZHOU-23 (SZ-23)     
1 69180U 26113A   26198.52240887  .00001129  00000+0  18813-4 0  9996
2 69180  41.4691 137.7269 0001921 301.5742  58.4908 15.58143309297372
